NORAD_CAT_ID,OBJECT_NAME,OBJECT_TYPE,EPOCH,MEAN_MOTION,ECCENTRICITY,INCLINATION,RA_OF_ASC_NODE,ARG_OF_PERICENTER,MEAN_ANOMALY,BSTAR,MEAN_MOTION_DOT,MEAN_MOTION_DDOT,TLE_LINE0,TLE_LINE1,TLE_LINE2,SEMIMAJOR_AXIS,PERIOD,APOGEE,PERIGEE,DECAYED
54776.0,STARLINK-5470,PAYLOAD,2023-06-17 11:57:47,15.08836662,9.9e-05,53.2167,195.8022,84.5477,275.5628,-6.3246e-06,-3.88e-06,0.0,0 STARLINK-5470,1 54776U 22175U   23168.49846076 -.00000388  00000-0 -63246-5 0  9997,2 54776  53.2167 195.8022 0000990  84.5477 275.5628 15.08836662 29534,6917.891,95.438,540.44,539.071,0.0
54776.0,STARLINK-5470,PAYLOAD,2023-06-17 18:19:19,15.08833415,9.92e-05,53.2167,194.6128,83.7216,276.3889,-3.4001e-05,-8.29e-06,0.0,0 STARLINK-5470,1 54776U 22175U   23168.76342418 -.00000829  00000-0 -34001-4 0  9994,2 54776  53.2167 194.6128 0000992  83.7216 276.3889 15.08833415 29577,6917.901,95.438,540.452,539.079,0.0
54776.0,STARLINK-5470,PAYLOAD,2023-06-18 08:37:48,15.08834754,0.0001,53.2166,191.9367,83.7061,276.4045,-3.3588e-05,-8.22e-06,0.0,0 STARLINK-5470,1 54776U 22175U   23169.35958530 -.00000822  00000-0 -33588-4 0  9990,2 54776  53.2166 191.9367 0001000  83.7061 276.4045 15.08834754 29662,6917.896,95.438,540.453,539.07,0.0
54776.0,STARLINK-5470,PAYLOAD,2023-06-18 18:10:07,15.08834848,9.92e-05,53.2168,190.1524,80.903,279.2074,-1.3648e-05,-5.05e-06,0.0,0 STARLINK-5470,1 54776U 22175U   23169.75702574 -.00000505  00000-0 -13648-4 0  9992,2 54776  53.2168 190.1524 0000992  80.9030 279.2074 15.08834848 29728,6917.896,95.438,540.447,539.075,0.0
54776.0,STARLINK-5470,PAYLOAD,2023-06-19 10:03:58,15.08835721,9.62e-05,53.2168,187.1796,85.6216,274.4886,6.2838e-05,7.12e-06,0.0,0 STARLINK-5470,1 54776U 22175U   23170.41942499  .00000712  00000-0  62838-4 0  9992,2 54776  53.2168 187.1796 0000962  85.6216 274.4886 15.08835721 29820,6917.893,95.438,540.424,539.093,0.0
54776.0,STARLINK-5470,PAYLOAD,2023-06-20 00:22:26,15.08837089,9.52e-05,53.2168,184.5034,86.2573,273.8527,9.5357e-05,1.23e-05,0.0,0 STARLINK-5470,1 54776U 22175U   23171.01558433  .00001230  00000-0  95357-4 0  9998,2 54776  53.2168 184.5034 0000952  86.2573 273.8527 15.08837089 27752,6917.889,95.438,540.413,539.096,0.0
54776.0,STARLINK-5470,PAYLOAD,2023-06-20 13:05:31,15.08839612,9.58e-05,53.2168,182.1244,84.6611,275.4491,8.8329e-05,1.118e-05,0.0,0 STARLINK-5470,1 54776U 22175U   23171.54550360  .00001118  00000-0  88329-4 0  9993,2 54776  53.2168 182.1244 0000958  84.6611 275.4491 15.08839612 29990,6917.882,95.438,540.409,539.084,0.0
54776.0,STARLINK-5470,PAYLOAD,2023-06-21 08:10:09,15.08841744,0.0001025,53.2169,178.5558,87.3118,272.7991,4.3025e-05,3.97e-06,0.0,0 STARLINK-5470,1 54776U 22175U   23172.34038389  .00000397  00000-0  43025-4 0  9996,2 54776  53.2169 178.5558 0001025  87.3118 272.7991 15.08841744 27954,6917.875,95.437,540.449,539.031,0.0
54776.0,STARLINK-5470,PAYLOAD,2023-06-21 17:42:27,15.08841567,0.0001073,53.217,176.7719,83.6858,276.4257,3.136e-05,2.11e-06,0.0,0 STARLINK-5470,1 54776U 22175U   23172.73782405  .00000211  00000-0  31360-4 0  9998,2 54776  53.2170 176.7719 0001073  83.6858 276.4257 15.08841567 30175,6917.876,95.437,540.483,538.998,0.0
54776.0,STARLINK-5470,PAYLOAD,2023-06-22 17:33:14,15.0884052,0.0001013,53.2165,172.3108,88.4882,271.6226,3.1454e-05,2.13e-06,0.0,0 STARLINK-5470,1 54776U 22175U   23173.73142287  .00000213  00000-0  31454-4 0  9993,2 54776  53.2165 172.3108 0001013  88.4882 271.6226 15.08840520 28164,6917.879,95.438,540.445,539.043,0.0
54776.0,STARLINK-5470,PAYLOAD,2023-06-23 23:45:34,15.08836285,0.0001055,53.2165,166.6602,91.586,268.5253,-1.0446e-05,-4.54e-06,0.0,0 STARLINK-5470,1 54776U 22175U   23174.98998748 -.00000454  00000-0 -10446-4 0  9999,2 54776  53.2165 166.6602 0001055  91.5860 268.5253 15.08836285 28355,6917.892,95.438,540.487,539.027,0.0
54776.0,STARLINK-5470,PAYLOAD,2023-06-25 02:47:07,15.08840954,0.0001086,53.2166,161.6056,90.554,269.5576,4.7198e-05,4.63e-06,0.0,0 STARLINK-5470,1 54776U 22175U   23176.11606423  .00000463  00000-0  47198-4 0  9994,2 54776  53.2166 161.6056 0001086  90.5540 269.5576 15.08840954 28528,6917.877,95.437,540.494,538.991,0.0
54776.0,STARLINK-5470,PAYLOAD,2023-06-26 02:37:55,15.08833178,0.0001131,53.217,157.1468,87.7248,272.3873,2.2263e-05,6.6e-07,0.0,0 STARLINK-5470,1 54776U 22175U   23177.10967173  .00000066  00000-0  22263-4 0  9991,2 54776  53.2170 157.1468 0001131  87.7248 272.3873 15.08833178 28672,6917.901,95.438,540.549,538.984,0.0
54776.0,STARLINK-5470,PAYLOAD,2023-06-27 07:14:52,15.08836878,0.0001175,53.2172,151.794,89.5301,270.5826,-1.4452e-05,-5.18e-06,0.0,0 STARLINK-5470,1 54776U 22175U   23178.30199442 -.00000518  00000-0 -14452-4 0  9995,2 54776  53.2172 151.7940 0001175  89.5301 270.5826 15.08836878 28855,6917.89,95.438,540.568,538.942,0.0
54776.0,STARLINK-5470,PAYLOAD,2023-06-28 05:30:15,15.08841433,0.0001161,53.2174,147.6309,92.23,267.8825,7.446e-05,8.97e-06,0.0,0 STARLINK-5470,1 54776U 22175U   23179.22935028  .00000897  00000-0  74460-4 0  9998,2 54776  53.2174 147.6309 0001161  92.2300 267.8825 15.08841433 28991,6917.876,95.437,540.544,538.938,0.0
54776.0,STARLINK-5470,PAYLOAD,2023-06-29 02:10:17,15.08829426,0.000131,53.2185,143.7632,87.4235,272.6907,2.9908e-05,1.88e-06,0.0,0 STARLINK-5470,1 54776U 22175U   23180.09048155  .00000188  00000-0  29908-4 0  9991,2 54776  53.2185 143.7632 0001310  87.4235 272.6907 15.08829426 29127,6917.913,95.438,540.684,538.871,0.0
54776.0,STARLINK-5470,PAYLOAD,2023-06-29 06:56:26,15.08835911,0.000121,53.2175,142.8706,87.8955,272.2176,4.4119e-05,4.14e-06,0.0,0 STARLINK-5470,1 54776U 22175U   23180.28919761  .00000414  00000-0  44119-4 0  9995,2 54776  53.2175 142.8706 0001210  87.8955 272.2176 15.08835911 29153,6917.893,95.438,540.595,538.921,0.0
54776.0,STARLINK-5470,PAYLOAD,2023-06-30 14:44:09,15.08839457,0.0001194,53.2174,136.9224,105.7925,254.3199,-5.8741e-06,-3.81e-06,0.0,0 STARLINK-5470,1 54776U 22175U   23181.61399411 -.00000381  00000-0 -58741-5 0  9999,2 54776  53.2174 136.9224 0001194 105.7925 254.3199 15.08839457 29356,6917.882,95.438,540.573,538.921,0.0
54776.0,STARLINK-5470,PAYLOAD,2023-07-01 01:51:51,15.08801186,0.0001624,53.2175,134.8404,110.2576,249.859,0.00042626,6.495e-05,0.0,0 STARLINK-5470,1 54776U 22175U   23182.07768149  .00006495  00000-0  42626-3 0  9991,2 54776  53.2175 134.8404 0001624 110.2576 249.8590 15.08801186 29425,6917.999,95.44,540.988,538.741,0.0
54776.0,STARLINK-5470,PAYLOAD,2023-07-01 06:38:00,15.08835916,0.0001277,53.2177,133.9517,90.8484,269.2654,5.6575e-06,-1.98e-06,0.0,0 STARLINK-5470,1 54776U 22175U   23182.27639941 -.00000198  00000-0  56575-5 0  9995,2 54776  53.2177 133.9517 0001277  90.8484 269.2654 15.08835916 29455,6917.893,95.438,540.641,538.874,0.0
54776.0,STARLINK-5470,PAYLOAD,2023-07-02 01:42:38,15.08843724,0.0001292,53.2175,130.3841,89.0499,271.0641,1.9859e-05,2.8e-07,0.0,0 STARLINK-5470,1 54776U 22175U   23183.07127446  .00000028  00000-0  19859-4 0  9990,2 54776  53.2175 130.3841 0001292  89.0499 271.0641 15.08843724 29573,6917.869,95.437,540.628,538.84,0.0
54776.0,STARLINK-5470,PAYLOAD,2023-07-03 01:33:25,15.08834076,0.0001173,53.2172,125.9238,89.4306,270.6821,8.0535e-05,9.94e-06,0.0,0 STARLINK-5470,1 54776U 22175U   23184.06487899  .00000994  00000-0  80535-4 0  9992,2 54776  53.2172 125.9238 0001173  89.4306 270.6821 15.08834076 29721,6917.898,95.438,540.575,538.952,0.0
54776.0,STARLINK-5470,PAYLOAD,2023-07-03 06:19:34,15.08842401,0.0001229,53.2171,125.0318,84.6227,275.4905,7.0433e-05,8.33e-06,0.0,0 STARLINK-5470,1 54776U 22175U   23184.26359449  .00000833  00000-0  70433-4 0  9991,2 54776  53.2171 125.0318 0001229  84.6227 275.4905 15.08842401 29751,6917.873,95.437,540.588,538.888,0.0
54776.0,STARLINK-5470,PAYLOAD,2023-07-03 12:41:07,15.08835032,0.000134,53.2174,123.8429,85.8081,274.3064,1.1408e-05,-1.06e-06,0.0,0 STARLINK-5470,1 54776U 22175U   23184.52856218 -.00000106  00000-0  11408-4 0  9997,2 54776  53.2174 123.8429 0001340  85.8081 274.3064 15.08835032 29798,6917.896,95.438,540.688,538.834,0.0
54776.0,STARLINK-5470,PAYLOAD,2023-07-05 01:14:59,15.08840989,0.0001149,53.2189,117.0036,84.052,276.0603,6.6776e-05,7.75e-06,0.0,0 STARLINK-5470,1 54776U 22175U   23186.05207920  .00000775  00000-0  66776-4 0  9996,2 54776  53.2189 117.0036 0001149  84.0520 276.0603 15.08840989 30022,6917.877,95.437,540.537,538.948,0.0
54776.0,STARLINK-5470,PAYLOAD,2023-07-05 04:25:44,15.08909711,0.0001029,53.2192,116.4078,97.7371,262.3738,-0.00076854,-0.00012521,0.0,0 STARLINK-5470,1 54776U 22175U   23186.18454449 -.00012521  00000-0 -76854-3 0  9991,2 54776  53.2192 116.4078 0001029  97.7371 262.3738 15.08909711 30045,6917.667,95.433,540.244,538.82,0.0
54776.0,STARLINK-5470,PAYLOAD,2023-07-05 12:22:41,15.08839455,0.0001357,53.2187,114.9221,86.2214,273.8933,-1.9545e-05,-5.99e-06,0.0,0 STARLINK-5470,1 54776U 22175U   23186.51576281 -.00000599  00000-0 -19545-4 0  9994,2 54776  53.2187 114.9221 0001357  86.2214 273.8933 15.08839455 30091,6917.882,95.438,540.686,538.808,0.0
54776.0,STARLINK-5470,PAYLOAD,2023-07-06 01:05:47,15.08826355,0.0001371,53.2188,112.5401,84.79,275.3249,0.00012246,1.661e-05,0.0,0 STARLINK-5470,1 54776U 22175U   23187.04568909  .00001661  00000-0  12246-3 0  9990,2 54776  53.2188 112.5401 0001371  84.7900 275.3249 15.08826355 30178,6917.922,95.438,540.736,538.839,0.0
54776.0,STARLINK-5470,PAYLOAD,2023-07-06 04:16:35,15.08808752,0.0001401,53.2185,111.9465,77.482,282.6329,-0.00017915,-3.135e-05,0.0,0 STARLINK-5470,1 54776U 22175U   23187.17819067 -.00003135  00000-0 -17915-3 0  9996,2 54776  53.2185 111.9465 0001401  77.4820 282.6329 15.08808752 30195,6917.976,95.44,540.81,538.872,0.0
54776.0,STARLINK-5470,PAYLOAD,2023-07-06 18:35:03,15.08824551,9.06e-05,53.2181,109.2692,92.4857,267.6239,-0.00015071,-2.684e-05,0.0,0 STARLINK-5470,1 54776U 22175U   23187.77434635 -.00002684  00000-0 -15071-3 0  9995,2 54776  53.2181 109.2692 0000906  92.4857 267.6239 15.08824551 30287,6917.928,95.439,540.419,539.166,0.0
